COSMOS 1933             
1 18958U 88020A   25341.27834922  .00007019  00000+0  35327-3 0  9990
2 18958  82.5133 342.2750 0005407 142.7191 217.4418 15.17042768 36219
SL-3 R/B                
1 19046U 88032B   25341.26105051  .00007670  00000+0  37014-3 0  9993
2 19046  97.5076 320.0194 0026106 192.0950 167.9661 15.18658315 38073
SL-16 R/B               
1 19120U 88039B   25341.25081544  .00000256  00000+0  14353-3 0  9996
2 19120  71.0152 264.0037 0019864 125.5455 234.7526 14.19595446945261
COSMOS 1953             
1 19210U 88050A   25341.19946284  .00008903  00000+0  33545-3 0  9994
2 19210  82.5095 251.1394 0013839  88.1875 272.0948 15.26842655 23663
SL-8 R/B                
1 19257U 88053B   25341.10744854  .00000488  00000+0  16665-3 0  9992
2 19257  74.0476 283.0999 0019106 129.3298 242.1531 14.38853647963280
COSMOS 1975             
1 19573U 88093A   25340.68423357  .00012483  00000+0  47810-3 0  9995
2 19573  82.5203 210.8898 0012450 131.3346 228.8966 15.26343345  5211
SL-14 R/B               
1 19574U 88093B   25340.92530861  .00000937  00000+0  10539-3 0  9991
2 19574  82.5300 129.1237 0020425 349.2083 126.7174 14.85539184987261
SL-16 R/B               
1 19650U 88102B   25341.30203099 -.00000161  00000+0 -57348-4 0  9991
2 19650  71.0000 345.8853 0013206 161.1448 199.0167 14.16136826913817
INTERCOSMOS 24          
1 20261U 89080A   25341.26228952  .00001588  00000+0  46188-3 0  9998
2 20261  82.6044 164.5142 1188774 147.2225 220.8678 12.59424204655168
SL-14 R/B               
1 20262U 89080C   25341.22390587  .00000773  00000+0  22699-3 0  9995
2 20262  82.5935 232.5609 1230753  36.1914 331.6406 12.50407150648598
DELTA 1 R/B             
1 20323U 89089B   25341.05238771  .00000674  00000+0  17528-3 0  9994
2 20323  97.0757 198.1912 0070426  55.9656 304.8204 14.50565362882302
ARIANE 40 R/B           
1 20443U 90005H   25341.17965276  .00000627  00000+0  21336-3 0  9997
2 20443  98.3250  39.5145 0011150 120.8649 239.3638 14.39792322879490
