CCSDS_OMM_VERS = 2.0
CREATION_DATE  = 
ORIGINATOR     = 

OBJECT_NAME    = COSMOS 1933
OBJECT_ID      = 1988-020A
CENTER_NAME    = EARTH
REF_FRAME      = TEME
TIME_SYSTEM    = UTC
MEAN_ELEMENT_THEORY = SGP/SGP4

EPOCH          = 2025-12-07T06:40:49.372608
MEAN_MOTION    = 15.17042768
ECCENTRICITY   = .00054078
INCLINATION    = 82.5133
RA_OF_ASC_NODE = 342.2750
ARG_OF_PERICENTER = 142.7191
MEAN_ANOMALY   = 217.4418

EPHEMERIS_TYPE = 0
CLASSIFICATION_TYPE = U
NORAD_CAT_ID   = 18958
ELEMENT_SET_NO = 999
REV_AT_EPOCH   = 3621
BSTAR          = .35327425E-3
MEAN_MOTION_DOT = .7019E-4
MEAN_MOTION_DDOT = 0

CCSDS_OMM_VERS = 2.0
CREATION_DATE  = 
ORIGINATOR     = 

OBJECT_NAME    = SL-3 R/B
OBJECT_ID      = 1988-032B
CENTER_NAME    = EARTH
REF_FRAME      = TEME
TIME_SYSTEM    = UTC
MEAN_ELEMENT_THEORY = SGP/SGP4

EPOCH          = 2025-12-07T06:15:54.764064
MEAN_MOTION    = 15.18658315
ECCENTRICITY   = .00261063
INCLINATION    = 97.5076
RA_OF_ASC_NODE = 320.0194
ARG_OF_PERICENTER = 192.0950
MEAN_ANOMALY   = 167.9661

EPHEMERIS_TYPE = 0
CLASSIFICATION_TYPE = U
NORAD_CAT_ID   = 19046
ELEMENT_SET_NO = 999
REV_AT_EPOCH   = 3807
BSTAR          = .37014045E-3
MEAN_MOTION_DOT = .767E-4
MEAN_MOTION_DDOT = 0

CCSDS_OMM_VERS = 2.0
CREATION_DATE  = 
ORIGINATOR     = 

OBJECT_NAME    = SL-16 R/B
OBJECT_ID      = 1988-039B
CENTER_NAME    = EARTH
REF_FRAME      = TEME
TIME_SYSTEM    = UTC
MEAN_ELEMENT_THEORY = SGP/SGP4

EPOCH          = 2025-12-07T06:01:10.454016
MEAN_MOTION    = 14.19595446
ECCENTRICITY   = .00198645
INCLINATION    = 71.0152
RA_OF_ASC_NODE = 264.0037
ARG_OF_PERICENTER = 125.5455
MEAN_ANOMALY   = 234.7526

EPHEMERIS_TYPE = 0
CLASSIFICATION_TYPE = U
NORAD_CAT_ID   = 19120
ELEMENT_SET_NO = 999
REV_AT_EPOCH   = 94526
BSTAR          = .14353002E-3
MEAN_MOTION_DOT = .256E-5
MEAN_MOTION_DDOT = 0

CCSDS_OMM_VERS = 2.0
CREATION_DATE  = 
ORIGINATOR     = 

OBJECT_NAME    = COSMOS 1953
OBJECT_ID      = 1988-050A
CENTER_NAME    = EARTH
REF_FRAME      = TEME
TIME_SYSTEM    = UTC
MEAN_ELEMENT_THEORY = SGP/SGP4

EPOCH          = 2025-12-07T04:47:13.589376
MEAN_MOTION    = 15.26842655
ECCENTRICITY   = .00138394
INCLINATION    = 82.5095
RA_OF_ASC_NODE = 251.1394
ARG_OF_PERICENTER = 88.1875
MEAN_ANOMALY   = 272.0948

EPHEMERIS_TYPE = 0
CLASSIFICATION_TYPE = U
NORAD_CAT_ID   = 19210
ELEMENT_SET_NO = 999
REV_AT_EPOCH   = 2366
BSTAR          = .33545313E-3
MEAN_MOTION_DOT = .8903E-4
MEAN_MOTION_DDOT = 0

CCSDS_OMM_VERS = 2.0
CREATION_DATE  = 
ORIGINATOR     = 

OBJECT_NAME    = SL-8 R/B
OBJECT_ID      = 1988-053B
CENTER_NAME    = EARTH
REF_FRAME      = TEME
TIME_SYSTEM    = UTC
MEAN_ELEMENT_THEORY = SGP/SGP4

EPOCH          = 2025-12-07T02:34:43.553856
MEAN_MOTION    = 14.38853647
ECCENTRICITY   = .00191067
INCLINATION    = 74.0476
RA_OF_ASC_NODE = 283.0999
ARG_OF_PERICENTER = 129.3298
MEAN_ANOMALY   = 242.1531

EPHEMERIS_TYPE = 0
CLASSIFICATION_TYPE = U
NORAD_CAT_ID   = 19257
ELEMENT_SET_NO = 999
REV_AT_EPOCH   = 96328
BSTAR          = .16665289E-3
MEAN_MOTION_DOT = .488E-5
MEAN_MOTION_DDOT = 0

CCSDS_OMM_VERS = 2.0
CREATION_DATE  = 
ORIGINATOR     = 

OBJECT_NAME    = COSMOS 1975
OBJECT_ID      = 1988-093A
CENTER_NAME    = EARTH
REF_FRAME      = TEME
TIME_SYSTEM    = UTC
MEAN_ELEMENT_THEORY = SGP/SGP4

EPOCH          = 2025-12-06T16:25:17.780448
MEAN_MOTION    = 15.26343345
ECCENTRICITY   = .00124506
INCLINATION    = 82.5203
RA_OF_ASC_NODE = 210.8898
ARG_OF_PERICENTER = 131.3346
MEAN_ANOMALY   = 228.8966

EPHEMERIS_TYPE = 0
CLASSIFICATION_TYPE = U
NORAD_CAT_ID   = 19573
ELEMENT_SET_NO = 999
REV_AT_EPOCH   = 521
BSTAR          = .47809821E-3
MEAN_MOTION_DOT = .12483E-3
MEAN_MOTION_DDOT = 0

CCSDS_OMM_VERS = 2.0
CREATION_DATE  = 
ORIGINATOR     = 

OBJECT_NAME    = SL-14 R/B
OBJECT_ID      = 1988-093B
CENTER_NAME    = EARTH
REF_FRAME      = TEME
TIME_SYSTEM    = UTC
MEAN_ELEMENT_THEORY = SGP/SGP4

EPOCH          = 2025-12-06T22:12:26.663904
MEAN_MOTION    = 14.85539184
ECCENTRICITY   = .00204257
INCLINATION    = 82.5300
RA_OF_ASC_NODE = 129.1237
ARG_OF_PERICENTER = 349.2083
MEAN_ANOMALY   = 126.7174

EPHEMERIS_TYPE = 0
CLASSIFICATION_TYPE = U
NORAD_CAT_ID   = 19574
ELEMENT_SET_NO = 999
REV_AT_EPOCH   = 98726
BSTAR          = .10538967E-3
MEAN_MOTION_DOT = .937E-5
MEAN_MOTION_DDOT = 0

CCSDS_OMM_VERS = 2.0
CREATION_DATE  = 
ORIGINATOR     = 

OBJECT_NAME    = SL-16 R/B
OBJECT_ID      = 1988-102B
CENTER_NAME    = EARTH
REF_FRAME      = TEME
TIME_SYSTEM    = UTC
MEAN_ELEMENT_THEORY = SGP/SGP4

EPOCH          = 2025-12-07T07:14:55.477536
MEAN_MOTION    = 14.16136826
ECCENTRICITY   = .00132061
INCLINATION    = 71.0000
RA_OF_ASC_NODE = 345.8853
ARG_OF_PERICENTER = 161.1448
MEAN_ANOMALY   = 199.0167

EPHEMERIS_TYPE = 0
CLASSIFICATION_TYPE = U
NORAD_CAT_ID   = 19650
ELEMENT_SET_NO = 999
REV_AT_EPOCH   = 91381
BSTAR          = -.57347545E-4
MEAN_MOTION_DOT = -.161E-5
MEAN_MOTION_DDOT = 0

CCSDS_OMM_VERS = 2.0
CREATION_DATE  = 
ORIGINATOR     = 

OBJECT_NAME    = INTERCOSMOS 24
OBJECT_ID      = 1989-080A
CENTER_NAME    = EARTH
REF_FRAME      = TEME
TIME_SYSTEM    = UTC
MEAN_ELEMENT_THEORY = SGP/SGP4

EPOCH          = 2025-12-07T06:17:41.814528
MEAN_MOTION    = 12.59424204
ECCENTRICITY   = .1188774
INCLINATION    = 82.6044
RA_OF_ASC_NODE = 164.5142
ARG_OF_PERICENTER = 147.2225
MEAN_ANOMALY   = 220.8678

EPHEMERIS_TYPE = 0
CLASSIFICATION_TYPE = U
NORAD_CAT_ID   = 20261
ELEMENT_SET_NO = 999
REV_AT_EPOCH   = 65516
BSTAR          = .46188362E-3
MEAN_MOTION_DOT = .1588E-4
MEAN_MOTION_DDOT = 0

CCSDS_OMM_VERS = 2.0
CREATION_DATE  = 
ORIGINATOR     = 

OBJECT_NAME    = SL-14 R/B
OBJECT_ID      = 1989-080C
CENTER_NAME    = EARTH
REF_FRAME      = TEME
TIME_SYSTEM    = UTC
MEAN_ELEMENT_THEORY = SGP/SGP4

EPOCH          = 2025-12-07T05:22:25.467168
MEAN_MOTION    = 12.50407150
ECCENTRICITY   = .12307534
INCLINATION    = 82.5935
RA_OF_ASC_NODE = 232.5609
ARG_OF_PERICENTER = 36.1914
MEAN_ANOMALY   = 331.6406

EPHEMERIS_TYPE = 0
CLASSIFICATION_TYPE = U
NORAD_CAT_ID   = 20262
ELEMENT_SET_NO = 999
REV_AT_EPOCH   = 64859
BSTAR          = .22699234E-3
MEAN_MOTION_DOT = .773E-5
MEAN_MOTION_DDOT = 0

CCSDS_OMM_VERS = 2.0
CREATION_DATE  = 
ORIGINATOR     = 

OBJECT_NAME    = DELTA 1 R/B
OBJECT_ID      = 1989-089B
CENTER_NAME    = EARTH
REF_FRAME      = TEME
TIME_SYSTEM    = UTC
MEAN_ELEMENT_THEORY = SGP/SGP4

EPOCH          = 2025-12-07T01:15:26.298144
MEAN_MOTION    = 14.50565362
ECCENTRICITY   = .00704262
INCLINATION    = 97.0757
RA_OF_ASC_NODE = 198.1912
ARG_OF_PERICENTER = 55.9656
MEAN_ANOMALY   = 304.8204

EPHEMERIS_TYPE = 0
CLASSIFICATION_TYPE = U
NORAD_CAT_ID   = 20323
ELEMENT_SET_NO = 999
REV_AT_EPOCH   = 88230
BSTAR          = .17527942E-3
MEAN_MOTION_DOT = .674E-5
MEAN_MOTION_DDOT = 0

CCSDS_OMM_VERS = 2.0
CREATION_DATE  = 
ORIGINATOR     = 

OBJECT_NAME    = ARIANE 40 R/B
OBJECT_ID      = 1990-005H
CENTER_NAME    = EARTH
REF_FRAME      = TEME
TIME_SYSTEM    = UTC
MEAN_ELEMENT_THEORY = SGP/SGP4

EPOCH          = 2025-12-07T04:18:41.998464
MEAN_MOTION    = 14.39792322
ECCENTRICITY   = .00111507
INCLINATION    = 98.3250
RA_OF_ASC_NODE = 39.5145
ARG_OF_PERICENTER = 120.8649
MEAN_ANOMALY   = 239.3638

EPHEMERIS_TYPE = 0
CLASSIFICATION_TYPE = U
NORAD_CAT_ID   = 20443
ELEMENT_SET_NO = 999
REV_AT_EPOCH   = 87949
BSTAR          = .21336221E-3
MEAN_MOTION_DOT = .627E-5
MEAN_MOTION_DDOT = 0

